{
  "norad_id": 68441,
  "name": "TRANSPORTER-16 OBJECT AB",
  "history": [
    {
      "epoch": "2026-04-14T03:23:26.215296Z",
      "apogee_km": 513.5728394965208,
      "perigee_km": 511.7633140833559,
      "latitude_deg": -5.544758714211363e-05,
      "longitude_deg": 170.36971573750182,
      "height_km": 514.8743978559805,
      "semi_major_axis_km": 6890.805076789938,
      "eccentricity": 0.0001313,
      "inclination_deg": 97.4467,
      "raan_deg": 63.5509,
      "arg_perigee_deg": 346.5728,
      "mean_anomaly_deg": 13.547,
      "mean_motion_rev_day": 15.17741518
    },
    {
      "epoch": "2026-04-16T10:46:16.783968Z",
      "apogee_km": 513.473555385398,
      "perigee_km": 511.8335472341869,
      "latitude_deg": -1.7254980241720132e-05,
      "longitude_deg": 59.6557070322978,
      "height_km": 515.0453991567489,
      "semi_major_axis_km": 6890.790551309792,
      "eccentricity": 0.000119,
      "inclination_deg": 97.4473,
      "raan_deg": 65.822,
      "arg_perigee_deg": 327.946,
      "mean_anomaly_deg": 32.1701,
      "mean_motion_rev_day": 15.17746317
    },
    {
      "epoch": "2026-04-17T19:59:58.562016Z",
      "apogee_km": 513.3655630512676,
      "perigee_km": 511.9067863701821,
      "latitude_deg": 1.9922412760536196e-05,
      "longitude_deg": -78.7727076209472,
      "height_km": 515.1959038633598,
      "semi_major_axis_km": 6890.773174710725,
      "eccentricity": 0.00010585,
      "inclination_deg": 97.445,
      "raan_deg": 67.1823,
      "arg_perigee_deg": 316.3037,
      "mean_anomaly_deg": 43.8113,
      "mean_motion_rev_day": 15.17752058
    }
  ]
}